43257,IRIDIUM 150,2018,100.4,860.0,+,86.4,Active,1,LEO,USA,USA,Commercial/Government,Communications,Falcon,1 43257U 18030J   24162.60189134  .00000006  00000+0 -48547-5 0  9999,2 43257  86.3987 238.2665 0002308 101.8067 258.3388 14.34217553324586,14.34217553,0.0002308,LEO
43258,IRIDIUM 143,2018,100.4,860.0,+,86.4,Active,1,LEO,USA,USA,Commercial/Government,Communications,Falcon,1 43258U 18030K   24162.58286399  .00000000  00000+0 -71332-5 0  9990,2 43258  86.3991 238.3382 0002479 101.1966 258.9509 14.34217622324510,14.34217622,0.0002479,LEO
43478,IRIDIUM 161,2018,99.77,860.0,+,86.45,Active,1,LEO,USA,USA,Commercial/Government,Communications,Falcon,1 43478U 18047C   24162.59814110  .00000615  00000+0  17676-3 0  9991,2 43478  86.4500  36.2995 0002424  85.8714 274.2764 14.43288752318895,14.43288752,0.0002424,LEO
43479,IRIDIUM 152,2018,100.4,860.0,+,86.4,Active,1,LEO,USA,USA,Commercial/Government,Communications,Falcon,1 43479U 18047D   24162.55558098  .00000010  00000+0 -36556-5 0  9998,2 43479  86.3974  36.1768 0002054  86.2273 273.9158 14.34217658316901,14.34217658,0.0002054,LEO
43480,IRIDIUM 147,2018,100.4,860.0,+,86.4,Active,1,LEO,USA,USA,Commercial/Government,Communications,Falcon,1 43480U 18047E   24162.56192405 -.00000043  00000+0 -22466-4 0  9998,2 43480  86.3976  36.1663 0001962  83.5800 276.5619 14.34217212316909,14.34217212,0.0001962,LEO
43481,IRIDIUM 110,2018,100.4,860.0,+,86.4,Active,1,LEO,USA,USA,Commercial/Government,Communications,Falcon,1 43481U 18047F   24162.56826224  .00000483  00000+0  16550-3 0  9994,2 43481  86.3981  36.2366 0001870  77.7258 282.4147 14.34220739316895,14.34220739,0.000187,LEO
43482,IRIDIUM 162,2018,99.77,860.0,+,86.45,Active,1,LEO,USA,USA,Commercial/Government,Communications,Falcon,1 43482U 18047G   24162.59183284  .00000672  00000+0  19376-3 0  9999,2 43482  86.4501  36.2025 0002102  85.4160 274.7281 14.43291323318885,14.43291323,0.0002102,LEO
43569,IRIDIUM 160,2018,100.4,860.0,+,86.4,Active,1,LEO,USA,USA,Commercial/Government,Communications,Falcon,1 43569U 18061A   24162.58387135  .00000304  00000+0  10154-3 0  9998,2 43569  86.3977   4.6120 0002289  76.2333 283.9118 14.34217294307792,14.34217294,0.0002289,LEO
